[{"OBJECT_NAME":"STARLINK-30120","OBJECT_ID":"2023-079B","EPOCH":"2026-03-09T22:00:01.999584","MEAN_MOTION":15.17882096,"ECCENTRICITY":0.0002013,"INCLINATION":42.9994,"RA_OF_ASC_NODE":105.6157,"ARG_OF_PERICENTER":280.1229,"MEAN_ANOMALY":118.6442,"EPHEMERIS_TYPE":0,"CLASSIFICATION_TYPE":"U","NORAD_CAT_ID":56824,"ELEMENT_SET_NO":999,"REV_AT_EPOCH":578,"BSTAR":0.059515571,"MEAN_MOTION_DOT":0.01333909,"MEAN_MOTION_DDOT":0},{"OBJECT_NAME":"YAOGAN-43 01E","OBJECT_ID":"2024-148E","EPOCH":"2026-03-09T10:46:29.401824","MEAN_MOTION":15.23061231,"ECCENTRICITY":0.00047279,"INCLINATION":34.9939,"RA_OF_ASC_NODE":67.5277,"ARG_OF_PERICENTER":25.6868,"MEAN_ANOMALY":334.4081,"EPHEMERIS_TYPE":0,"CLASSIFICATION_TYPE":"U","NORAD_CAT_ID":60462,"ELEMENT_SET_NO":999,"REV_AT_EPOCH":8694,"BSTAR":0.00071899242,"MEAN_MOTION_DOT":0.0001736,"MEAN_MOTION_DDOT":0}]
